[Satellite]
VERSION=1.1
NAME=SL-14 R/B
NICKNAME=SL-14 R/B
TLE1=1 20466U 90010B   18020.81760696  .00000071  00000-0  60724-5 0  9994
TLE2=2 20466  82.5037 168.9764 0020134 347.9650  12.1080 14.81311321488658
